STARLINK-33563          
1 62284U 24237T   26068.44551353  .00035958  00000+0  13103-2 0  9991
2 62284  42.9991 217.8140 0001247 277.6375  82.4335 15.27569130 71150
BANDWAGON-4 OBJECT Q    
1 66307U 25248Q   26067.98911828  .00022547  00000+0  92242-3 0  9991
2 66307  45.4076 295.4821 0011280 209.4727 150.5526 15.23978167 19300
